1 48646C 21044J   21285.13622621  .00063245  00000+0  42404-2 0  2853
2 48646  53.0512 147.1726 0001669  57.2803 359.7199 15.06309749    19
1 48646C 21044J   21285.46616480  .00002724  00000+0  18248-3 0  2850
2 48646  53.0525 145.6913 0001973  65.5764 341.6684 15.06402101    15
1 48646C 21044J   21285.79841816 -.00021894  00000+0 -14668-2 0  2851
2 48646  53.0525 144.1997 0001937  65.6413 344.4248 15.06422707    14
1 48646C 21044J   21286.17710455 -.00000372  00000+0 -24924-4 0  2865
2 48646  53.0525 142.4997 0001934  65.8690 238.9890 15.06395246    18
1 48646C 21044J   21286.49634866 -.00002942  00000+0 -19716-3 0  2868
2 48646  53.0525 141.0666 0001885  65.3785 171.7047 15.06393713    16
1 48646C 21044J   21286.84064022 -.00021515  00000+0 -14423-2 0  2864
2 48646  53.0526 139.5210 0001883  65.7775 239.4340 15.06399061    15
1 48646C 21044J   21287.17260309  .00000899  00000+0  60271-4 0  2872
2 48646  53.0527 138.0307 0001891  65.1696 241.2800 15.06368611    11
1 48646C 21044J   21287.49184605  .00005166  00000+0  34638-3 0  2870
2 48646  53.0528 136.5977 0001892  65.1091 173.5326 15.06364896    19
1 48646C 21044J   21287.85971642  .00004545  00000+0  30472-3 0  2877
2 48646  53.0530 134.9463 0001914  65.6268   9.0542 15.06366667    11
1 48646C 21044J   21288.08454118  .00009119  00000+0  61135-3 0  2880
2 48646  53.0530 133.9371 0001937  65.8465 148.7177 15.06366096    15
1 48646C 21044J   21288.45871255  .00005456  00000+0  36579-3 0  2880
2 48646  53.0532 132.2574 0001957  66.0840  18.7115 15.06372473    10
1 48646C 21044J   21288.78523091  .00001202  00000+0  80584-4 0  2889
2 48646  53.0532 130.7915 0001960  66.9564 349.5124 15.06377301    18
1 48646C 21044J   21289.17848101  .00003942  00000+0  26425-3 0  2892
2 48646  53.0533 129.0263 0001983  67.4547 322.7718 15.06378693    15
1 48646C 21044J   21289.75869580 -.00000751  00000+0 -50354-4 0  2896
2 48646  53.0532 126.4215 0001980  69.1695 229.2880 15.06383986    14
1 48646C 21044J   21290.17365155  .00001600  00000+0  10726-3 0  2905
2 48646  53.0531 124.5587 0001979  69.6901 320.3089 15.06384058    12
1 48646C 21044J   21290.82584917  .00006117  00000+0  40997-3 0  2907
2 48646  53.0528 121.6308 0001944  71.9625 256.8604 15.06381456    13
1 48646C 21044J   21291.08666248  .00027113  00000+0  18165-2 0  2915
2 48646  53.0526 120.4599 0001928  71.7131 232.2834 15.06372065    11
1 48646C 21044J   21291.84131647  .00004230  00000+0  28324-3 0  2913
2 48646  53.0522 117.0719 0001850  72.7109   6.0553 15.06414781    10
1 48646C 21044J   21292.16461263  .00002332  00000+0  15615-3 0  2920
2 48646  53.0520 115.6205 0001871  73.0796 319.9228 15.06419425    16
1 48646C 21044J   21292.47134162 -.00014727  00000+0 -98618-3 0  2926
2 48646  53.0519 114.2433 0001814  73.2003 184.1429 15.06432860    15
1 48646C 21044J   21292.79743978 -.00021349  00000+0 -14302-2 0  2927
2 48646  53.0519 112.7792 0001819  73.2672 153.5326 15.06424926    13
1 48646C 21044J   21293.07729252 -.00000675  00000+0 -45244-4 0  2939
2 48646  53.0519 111.5227 0001795  73.0378 232.2799 15.06399018    19
1 48646C 21044J   21293.49599874  .00000502  00000+0  33653-4 0  2938
2 48646  53.0520 109.6428 0001791  72.8418 344.3894 15.06398836    18
1 48646C 21044J   21293.83227978  .00005416  00000+0  36289-3 0  2935
2 48646  53.0522 108.1330 0001790  72.9771   8.9321 15.06393041    19
1 48646C 21044J   21294.08820881  .00003926  00000+0  26302-3 0  2945
2 48646  53.0523 106.9841 0001811  72.7994 317.7850 15.06397963    17
1 48646C 21044J   21294.49654574 -.00000143  00000+0 -95927-5 0  2945
2 48646  53.0525 105.1507 0001822  73.1387  13.0962 15.06404565    19
1 48646C 21044J   21294.80657791  .00005411  00000+0  36249-3 0  2945
2 48646  53.0528 103.7589 0001823  73.3882 255.1037 15.06399069    13
1 48646C 21044J   21295.08386303  .00003162  00000+0  21180-3 0  2954
2 48646  53.0530 102.5141 0001828  73.3231 319.7292 15.06404716    16
1 48646C 21044J   21295.44985263 -.00004213  00000+0 -28219-3 0  2954
2 48646  53.0532 100.8710 0001781  73.9707 144.9612 15.06414071    12
1 48646C 21044J   21295.75693457 -.00022212  00000+0 -14882-2 0  2958
2 48646  53.0534  99.4924 0001760  73.7776  11.4066 15.06421194    10
1 48646C 21044J   21296.07884066 -.00010946  00000+0 -73357-3 0  2967
2 48646  53.0535  98.0473 0001700  74.1391 317.7396 15.06401410    14
1 48646C 21044J   21296.48974823 -.00002242  00000+0 -15023-3 0  2969
2 48646  53.0536  96.2026 0001669  74.5116  26.9620 15.06391319    17
1 48646C 21044J   21296.82941478  .00005898  00000+0  39526-3 0  2969
2 48646  53.0537  94.6780 0001650  74.8755  69.6359 15.06382943    15
1 48646C 21044J   21297.07382528  .00002757  00000+0  18476-3 0  2975
2 48646  53.0537  93.5809 0001642  75.2984 315.3798 15.06389116    12
1 48646C 21044J   21297.48643770 -.00003328  00000+0 -22301-3 0  2978
2 48646  53.0537  91.7286 0001623  76.3187  33.1941 15.06396755    19
1 48646C 21044J   21297.74618502  .00003558  00000+0  23846-3 0  2970
2 48646  53.0536  90.5627 0001609  76.5650   2.3479 15.06389215    12
1 48646C 21044J   21298.06911894  .00002883  00000+0  19320-3 0  2989
2 48646  53.0536  89.1132 0001615  76.7844 314.3698 15.06394271    18
1 48646C 21044J   21298.43647310 -.00000380  00000+0 -25489-4 0  2985
2 48646  53.0535  87.4641 0001590  77.4339 146.9903 15.06400521    16
1 48646C 21044J   21298.74392197  .00005542  00000+0  37127-3 0  2983
2 48646  53.0535  86.0840 0001596  77.1535  15.5060 15.06394500    17
1 48646C 21044J   21299.17883316  .00001724  00000+0  11551-3 0  2991
2 48646  53.0535  84.1317 0001591  76.7284 215.7742 15.06403554    17
1 48646C 21044J   21299.51215126 -.00023866  00000+0 -15990-2 0  2990
2 48646  53.0535  82.6353 0001540  76.4150 224.6826 15.06423621    12
1 48646C 21044J   21299.80763251 -.00007139  00000+0 -47843-3 0  2997
2 48646  53.0535  81.3089 0001509  75.1910  29.2235 15.06398373    17
1 48646C 21044J   21300.17361171  .00005535  00000+0  37093-3 0  3000
2 48646  53.0536  79.6660 0001494  74.5631 215.6692 15.06385492    15
1 48646C 21044J   21300.50643572  .00001433  00000+0  96040-4 0  3006
2 48646  53.0537  78.1718 0001493  74.2777 221.8538 15.06394388    13
1 48646C 21044J   21300.74277671  .00003804  00000+0  25491-3 0  3000
2 48646  53.0538  77.1109 0001515  74.0887  64.4364 15.06393233    18
1 48646C 21044J   21301.73071723  .00010214  00000+0  68459-3 0  3015
2 48646  53.0542  72.6759 0001378  70.9310  28.1194 15.06376848    18
1 48646C 21044J   21302.13489331  .00007035  00000+0  47139-3 0  3028
2 48646  53.0543  70.8615 0001366  70.5225  61.5788 15.06387895    12
1 48646C 21044J   21302.46213741  .00001150  00000+0  77063-4 0  3026
2 48646  53.0543  69.3923 0001352  70.8061  36.9203 15.06398357    16
1 48646C 21044J   21302.81181914  .00012796  00000+0  85717-3 0  3023
2 48646  53.0543  67.8226 0001334  70.6703 134.4458 15.06392418    14
1 48646C 21044J   21303.16024263  .00007077  00000+0  47401-3 0  3030
2 48646  53.0543  66.2584 0001321  70.0659 225.6096 15.06403873    13
1 48646C 21044J   21303.49253765 -.00020322  00000+0 -13613-2 0  3034
2 48646  53.0542  64.7666 0001334  71.1034 227.6200 15.06428081    16
1 48646C 21044J   21303.84562207 -.00002614  00000+0 -17510-3 0  3032
2 48646  53.0541  63.1815 0001361  71.3576 343.2479 15.06405792    14
1 48646C 21044J   21304.08767147  .00007873  00000+0  52742-3 0  3046
2 48646  53.0541  62.0948 0001399  71.8550 216.1341 15.06395011    15
1 48646C 21044J   21304.42048966 -.00014777  00000+0 -98997-3 0  3040
2 48646  53.0540  60.6007 0001409  72.1016 221.7623 15.06418739    15
1 48646C 21044J   21304.77276510 -.00004712  00000+0 -31570-3 0  3048
2 48646  53.0539  59.0193 0001451  72.4560 332.8906 15.06403057    10
1 48646C 21044J   21305.10675920  .00011329  00000+0  75899-3 0  3057
2 48646  53.0540  57.5199 0001497  72.5933 345.0305 15.06389114    12
1 48646C 21044J   21305.44966884 -.00017194  00000+0 -11521-2 0  3055
2 48646  53.0540  55.9804 0001454  71.7805  46.4694 15.06415739    15
1 48646C 21044J   21305.79895465 -.00005867  00000+0 -39315-3 0  3055
2 48646  53.0540  54.4124 0001396  70.2222 143.2805 15.06397213    12
1 48646C 21044J   21306.13263282 -.00015462  00000+0 -10365-2 0  3066
2 48646  53.0542  52.9145 0001329  68.3403 155.7088 15.06395265    11
1 48646C 21044J   21306.47742208 -.00003187  00000+0 -21365-3 0  3067
2 48646  53.0544  51.3666 0001310  67.5841 227.2983 15.06377008    15
1 48646C 21044J   21306.79430010  .00038313  00000+0  25693-2 0  3061
2 48646  53.0537  49.9448 0001403  65.8388 148.4277 15.06328236    17
1 48646C 21044J   21307.16215316  .00011146  00000+0  74703-3 0  3076
2 48646  53.0549  48.2929 0001300  63.8761 346.3262 15.06375417    11
1 48646C 21044J   21307.44131027  .00005304  00000+0  35544-3 0  3072
2 48646  53.0551  47.0398 0001306  63.4511  61.4473 15.06386163    15
1 48646C 21044J   21307.78957417  .00014652  00000+0  98164-3 0  3071
2 48646  53.0553  45.4766 0001308  62.8391 151.7393 15.06385620    10
1 48646C 21044J   21308.15815976  .00001315  00000+0  88085-4 0  3081
2 48646  53.0555  43.8220 0001356  61.9916 352.5353 15.06404224    14
1 48646C 21044J   21308.50111336 -.00010402  00000+0 -69666-3 0  3081
2 48646  53.0556  42.2825 0001397  62.0009  53.4184 15.06423340    18
1 48646C 21044J   21308.78559803  .00022266  00000+0  14904-2 0  3089
2 48646  53.0557  41.0055 0001421  62.6676 156.4156 15.06413292    13
1 48646C 21044J   21309.08593119  .00007752  00000+0  51880-3 0  3090
2 48646  53.0558  39.6573 0001414  62.1279 346.5978 15.06435437    17
1 48646C 21044J   21309.46389879 -.00064611  00000+0 -43281-2 0  3092
2 48646  53.0557  37.9606 0001429  63.0016 236.6211 15.06471731    15
1 48646C 21044J   21309.78178403 -.00081107  00000+0 -54408-2 0  3098
2 48646  53.0555  36.5337 0001420  63.7440 160.7820 15.06435039    12
